sat18269
1 18269U 65027Y   20044.50351665  .00000316  00000-0  11003-2 0  9994
2 18269  90.3008 317.3240 0029956 133.3072 227.0552 12.94835944270111
